43257,IRIDIUM 150,2018,100.4,860.0,+,86.39,Active,1,LEO,USA,USA,Commercial/Government,Communications,Falcon,1 43257U 18030J   24054.60022447  .00000022  00000+0  69734-6 0  9991,2 43257  86.3934 283.4363 0001970  96.8761 263.2659 14.34217494309104,14.34217494,0.000197,LEO
43258,IRIDIUM 143,2018,100.4,860.0,+,86.39,Active,1,LEO,USA,USA,Commercial/Government,Communications,Falcon,1 43258U 18030K   24054.58119635  .00000205  00000+0  66089-4 0  9996,2 43258  86.3940 283.5038 0002359  94.6233 265.5232 14.34216909309038,14.34216909,0.0002359,LEO
43478,IRIDIUM 161,2018,99.77,860.0,+,86.44,Active,1,LEO,USA,USA,Commercial/Government,Communications,Falcon,1 43478U 18047C   24054.58071395  .00000349  00000+0  97613-4 0  9994,2 43478  86.4434  81.4700 0002233  91.5916 268.5540 14.43290731303312,14.43290731,0.0002233,LEO
43479,IRIDIUM 152,2018,100.4,860.0,+,86.39,Active,1,LEO,USA,USA,Commercial/Government,Communications,Falcon,1 43479U 18047D   24054.83298647  .00000197  00000+0  63264-4 0  9990,2 43479  86.3906  81.2237 0002347  92.4776 267.6688 14.34216859301476,14.34216859,0.0002347,LEO
43480,IRIDIUM 147,2018,100.4,860.0,+,86.39,Active,1,LEO,USA,USA,Commercial/Government,Communications,Falcon,1 43480U 18047E   24054.56025367  .00000129  00000+0  39156-4 0  9997,2 43480  86.3909  81.3281 0002048  90.2672 269.8758 14.34216227301426,14.34216227,0.0002048,LEO
43481,IRIDIUM 110,2018,100.4,860.0,+,86.39,Active,1,LEO,USA,USA,Commercial/Government,Communications,Falcon,1 43481U 18047F   24054.56659608  .00000236  00000+0  77152-4 0  9996,2 43481  86.3911  81.3954 0001766  92.1499 267.9899 14.34216269301411,14.34216269,0.0001766,LEO
43482,IRIDIUM 162,2018,99.77,860.0,+,86.44,Active,1,LEO,USA,USA,Commercial/Government,Communications,Falcon,1 43482U 18047G   24054.57438933  .00000370  00000+0  10399-3 0  9992,2 43482  86.4432  81.3741 0002165  89.0078 271.1370 14.43269422303307,14.43269422,0.0002165,LEO
43569,IRIDIUM 160,2018,100.4,860.0,+,86.39,Active,1,LEO,USA,USA,Commercial/Government,Communications,Falcon,1 43569U 18061A   24054.51243656  .00000052  00000+0  11470-4 0  9993,2 43569  86.3938  49.7625 0002321  78.5875 281.5581 14.34217621292304,14.34217621,0.0002321,LEO
